name,latitude,longitude,address,cluster
中国料理 東春,41.79028,140.752509,函館市本町２２−４,1
Ristorante Buon Natale,41.7672452,140.7175932,函館市豊川町１１−５,1
Jolly Jellyfish 元町公園店,41.7652358,140.709552,函館市元町１２−１８ 元町公園内 旧北海道庁函館支庁庁舎,3
函館グルメジンギスカン ラムジン,41.7725256,140.7301104,函館市松風町７−５,1
大地のめぐみ,41.76726719999999,140.7195524,函館市豊川町１２−８,1
函まるずし戸倉店,41.78017619999999,140.8013177,函館市戸倉町３０１ フレスポ戸倉 内,1
ラッキーピエロ 五稜郭公園前店,41.79428480000001,140.7531586,函館市五稜郭町３０−１４,3
○波商店,41.7726094,140.7301618,函館市松風町７−６,1
海鮮処 函館山,41.7718623,140.7323827,函館市松風町１０−１５,1
ラッキーピエロ 本町店,41.78817600000001,140.7511396,函館市本町４−１８,3
ホテル恵風,41.8144862,141.1806908,函館市恵山岬町６１−２,1
幸寿司,41.77998600000001,140.785629,函館市湯川町１丁目２７−２,1
櫻井ラーメン店　櫻井家,41.76381769999999,140.7177769,函館市末広町５−１４,1
サンドウィッチの店 グルマンカンタ,41.7896967,140.7445467,函館市梁川町１０−２４,3
和遊彩食 郷 GO,41.7907255,140.7529477,函館市本町２２−１１ グリーンエステート西洋ビルヴィルヌーブ五稜郭 1F,1
コーヒーケーキショップ 美鈴湯川店,41.781439,140.7915166,函館市湯川町２丁目２９−１,3
グルメ回転寿司 函太郎　五稜郭公園店,41.79938629999999,140.7541439,函館市五稜郭町２５−１７,1
Jazz spot Leaf,41.772619,140.7303476,函館市松風町７−６,2
元町茶寮,41.76287689999999,140.7131612,函館市元町１７−８,1
Green Gables,41.7662229,140.7115619,函館市末広町２０−３,2
Genova（函館山展望台）,41.75941600000001,140.7044947,函館市元町１９−７ 函館山展望台2F,2
La cucina VENTITRE,41.79253,140.7653308,函館市柳町１４−２３,3
カール・レイモン歴史展示館,41.7636922,140.7143605,函館市元町３０−３ 函館カールレイモン,6
すし処 㐂川,41.93369,140.945516,函館市臼尻町１９４,1
回転寿司 函館旬花,41.7950706,140.7537536,函館市五稜郭町２９−１８,1
函館牛乳 あいす118,41.7728992,140.8411175,函館市中野町１１８,3
六花亭 漁火通店 喫茶室,41.77467439999999,140.7653101,函館市金堀町９−9番18号,3
ジンギスカン専門店　松羊亭,41.788447,140.7621105,函館市松陰町１８−３５,1
【2025年4月1日リニューアルオープン】ティーショップ夕日,41.76642069999999,140.6954174,函館市船見町２５−１８,2
元祖活いか釣堀（函館朝市イカ釣り体験）,41.77250189999999,140.7255077,函館市若松町９−１９,1
ハセガワストア　ベイエリア店,41.7656775,140.7150473,函館市末広町２３−５,1
金森赤レンガ倉庫（みやげ店）,41.76649270000001,140.7163777,函館市末広町１４−１２,3
ラッキーピエロ　ベイエリア本店,41.765756,140.7149328,函館市末広町２３−１８,3
シゲちゃんすし,41.7813023,140.7415761,函館市中島町１４−１０,1
回転寿司 函館まるかつ水産本店,41.7669939,140.7195466,函館市豊川町１２−１０ 函館ベイ美食倶楽部,3
滋養軒,41.7730743,140.7308486,函館市松風町７−１２,1
ジンギスカン 羊羊亭,41.76735269999999,140.7194676,函館市豊川町１２−８,1
函館麺厨房あじさい 紅店,41.76723279999999,140.7193245,函館市豊川町１２−７,1
カフェテリア　モーリエ,41.7680289,140.6964011,函館市船見町２３−１,3
函館元祖バスラーメン,41.7752269,140.7881504,函館市湯川町３丁目１０−３,1
函館魚市場食堂 魚いち亭,41.76983910000001,140.7197199,函館市豊川町２７−６,1
函館ひかりの屋台 大門横丁,41.7724664,140.7301218,函館市松風町７−５,3
函館朝市どんぶり横丁市場,41.77272000000001,140.7255235,函館市若松町９−１５,3
函館ベイ美食倶楽部,41.7672366,140.7194037,函館市豊川町１２−7他,3
茶房 菊泉,41.76425559999999,140.7109285,函館市元町１４−１４−５,1
五稜郭のお花見プラン（ジンギスカンセット）,41.7947628,140.7538416,函館市五稜郭町４３−９ 五稜郭タワー２階,3
カリフォルニアベイビー,41.7659957,140.714635,函館市末広町２３−１５,3
ヴィクトリアンローズ（函館市旧イギリス領事館）,41.76594980000001,140.7106585,函館市元町３３−１４ 函館市旧イギリス領事館,3
函館市戸井ウォーターパーク　ふれあい湯遊館,41.7294443,141.0318522,函館市原木町２８５−１,6
ビストロ ボンザミ,41.7613896,140.7187507,函館市宝来町７−１９,1
WOODROW'S BRITISH PUB,41.7635879,140.7192927,函館市末広町８−１２,3
うにむらかみ函館駅前店,41.771135,140.7267852,函館市若松町７−１,1
そば切り工房 しら川,41.77594199999999,140.792642,函館市湯川町３丁目１１−２１ レジデンスAbc,1
満る大,41.7525724,140.7164285,函館市谷地頭町３４−５,1
くらぶはうす,41.77238089999999,140.7303042,函館市松風町７−５,1
炉ばた大謀,41.7724024,140.7301734,函館市松風町７−５,1
祐鮨,41.7621326,140.7199014,函館市宝来町２２−１３,1
五島軒本店メモリアルホール蘆火野,41.7636099,140.7159168,函館市末広町４−５,6
麺屋いなせ,41.7734671,140.7349625,函館市新川町１−２,1
cafe CHI's,41.76609329999999,140.7174127,函館市末広町１３−２０ 2F,1
新函館らーめん龍鳳,41.7724869,140.7300377,函館市松風町７,1
キッチンnosukeya,41.7839458,140.7861233,函館市湯川町２丁目４０−１０,1
すしの鮮昇 函館朝市店,41.7726174,140.7256345,函館市若松町９−１５ どんぶり横丁内,1
鮨金分店,41.7908594,140.7496766,函館市本町１０−３,1
丸山園茶舗 お茶の多目的空間 御茶ノ倉,41.7621611,140.7180819,函館市末広町２−２,2
グリル塩豚（2022年12月閉店）,41.7757178,140.7804423,函館市湯川町１丁目９−１５,1
OLD NEW CAFE,41.7881543,140.7515917,函館市本町３２−６,3
cafe T's+,41.82892,140.7989167,函館市東山町１４３−１３３ カーナビ入力 143-132,3
かね久 山田手打ちそば店,41.7608089,140.721664,函館市宝来町２５−２,1
イタリアンカフェ サルティンボッカ,41.7656791,140.7178204,函館市末広町１３−２５,3
レストキャビン キャプテン,41.762724,140.719653,函館市末広町７−１８,1
手打ちそば 根崎やたら家,41.7721926,140.801727,函館市高松町３３３−３,1
ozigi,41.7650127,140.7162314,函館市末広町１６−１３,3
茂辺地 北斗星広場（北斗星スクエア）,41.7682052,140.6032396,函館市日本、〒049-0281 北海道北斗市茂辺地３丁目３−１４,6
ホテル函館ひろめ荘（大船温泉上の湯 南かやべ保養センター）,41.9371751,140.9127968,函館市大船町８３２,5
函館湯の川温泉　湯元啄木亭,41.77859129999999,140.7825998,函館市湯川町１丁目１８−１５,5
天然温泉 はこだて大森の湯,41.7702397,140.735987,函館市大森町２５−３,5
笑 函館屋,41.7759775,140.7911034,函館市湯川町３丁目１０−３ 笑函館屋,5
リソルスポーツプラザ,41.77166199999999,140.7276535,函館市若松町６−３,5
旧安田銀行函館支店・旧ホテルニューハコダテ（ホテルHakoBA函館）,41.76577619999999,140.7141614,函館市末広町２３,9
しかべ間歇泉公園,42.0286722,140.8305105,函館市日本、〒041-1402 北海道茅部郡鹿部町鹿部１８−１,5
湯元　花の湯,41.839836,140.73659,函館市桔梗町４１８−４１４,5
函館乃木温泉なごみ,41.7826568,140.7642525,函館市乃木町４−４−２５,5
水無海浜温泉,41.8111262,141.1843519,函館市恵山岬町,5
谷地頭温泉,41.75174609999999,140.7141881,函館市谷地頭町２０−７,5
ななえ天然温泉　ゆうひの館,41.8963709,140.6902468,函館市日本、〒041-1111 北海道亀田郡七飯町本町４丁目６−１,5
吉岡温泉ゆとらぎ館,41.4434939,140.2273305,函館市日本、〒049-1453 北海道松前郡福島町吉岡２１９−２３,5
松前温泉休養センター,41.4371285,140.149739,函館市日本、〒049-1522 北海道松前郡松前町大沢６５２−１４,5
東前温泉　しんわの湯,41.84679390000001,140.6823075,函館市日本、〒041-1214 北海道北斗市東前８５−５,5
湯の川温泉足湯「湯巡り舞台」,41.77959359999999,140.7856881,函館市湯川町１丁目１６,5
西ききょう温泉,41.830836,140.712162,函館市西桔梗町４４４−１,5
天然温泉 七重浜の湯,41.8198819,140.6922198,函館市日本、〒049-0111 北海道北斗市七重浜８丁目４−１,5
リブマックスリゾート函館グリーンピア大沼,42.0011578,140.6017013,函館市日本、〒049-2142 北海道茅部郡森町赤井川２２９,5
北斗市健康センター　せせらぎ温泉,41.8797552,140.6401196,函館市日本、〒041-1201 北海道北斗市本町４丁目３−２０,5
大盛湯,41.7803669,140.7900685,函館市湯川町２丁目１８−２３,5
知内町健康保養センターこもれび温泉,41.5796528,140.4146587,函館市日本、〒049-1106 北海道上磯郡知内町元町１０３−２,5
にしき温泉,41.789806,140.7776831,函館市深堀町１３−２,5
海鮮味処 すずや食堂,41.77241669999999,140.7238475,函館市若松町１０−４,1
アゼリア（函館国際ホテル）,41.76917489999999,140.7224856,函館市大手町５−１０ 東館1階,3
Asian Bar RAMAI 函館店,41.7755901,140.7760417,函館市 北海道 042-0933 日本,1
鮨処 江戸松,41.7531796,140.7157619,函館市谷地頭町２５−１９,1
La.Stella,41.795896,140.7648749,函館市本通１丁目４−１,1
グルメ回転寿司 函太郎　宇賀浦本店,41.77079479999999,140.7454638,函館市宇賀浦町１４−４,3
夏井珈琲Brucke,41.79950439999999,140.7514964,函館市五稜郭町２２−５,1
レストラン ノルテ,41.76779079999999,140.7189533,函館市豊川町１２−６ ラビスタ函館ベイ 1F,1
函館昭和のおもちゃ博物館＆Café フラフープ,41.7643814,140.7095792,函館市元町９−１１,3
Cafeマリオドール,41.7652144,140.718136,函館市末広町１２−７,2
函館いか家,41.77243910000001,140.7302484,函館市松風町７−５ 大門横丁内,1
café D'ici,41.7617325,140.7155165,函館市元町２２−９,3
スターバックス コーヒー 函館 蔦屋書店,41.83067399999999,140.735661,函館市石川町８５−１,3
マルキン焼きそば,41.7722966,140.7323963,函館市松風町１０−９,1
えびす食堂,41.77276469999999,140.7254769,函館市若松町９−１５ 内 函館朝市 どんぶり横丁,1
コメダ珈琲店 函館ベイエリア店,41.7677128,140.7178843,函館市豊川町２７−８,3
大手町ハウス函館（旧浅野セメント函館営業所、現cafe centenaire),41.77049409999999,140.7232028,函館市大手町５−１,9
手作りソフト 大三坂,41.7629548,140.7132257,函館市元町１７−９,2
レストラン ラ・ターチ,41.800823,140.7390244,函館市亀田本町３−２４,1
舶来居酒屋 杉の子,41.77236240000001,140.7305838,函館市松風町８−５,2
L'oiseau par Matsunaga（ロワゾー）,41.790985,140.7644865,函館市柏木町４−５,3
【閉店】オオテマチ食堂　リット,41.7675685,140.7231397,函館市大手町３−８ 食堂リット,3
cafe 海と硝子,41.75007,140.7187483,函館市住吉町１５−２,3
【2025年1月閉店】ワインバー　シャトー・ド・ラ・ポンプ,41.78950409999999,140.7504077,函館市本町７−２２,3
そば処　まるみなみ,41.7728415,140.7291387,函館市若松町１９−５,1
いか清 大門,41.7718041,140.7280519,函館市若松町６−１０,1
箱館ジンギスカン本店,41.7742162,140.7275452,函館市若松町１２−８ ハコビバ ハコビバ駅前横丁内,1
Cafe' LAMINAIRE,41.7572674,140.7224171,函館市宝来町１４−３１,3
【閉店】cafe&bar felice,41.788651,140.7570706,函館市杉並町２３−１０,1
ハセガワストア 湯の川店,41.7759,140.77986,函館市湯川町１丁目１０−１５,1
大手町ハウス函館 cafe centenaire,41.77049409999999,140.7232028,函館市大手町５−１,3
箱館 元町珈琲店,41.7644804,140.7129329,函館市元町３１−１１,2
寿し輝分店,41.81404759999999,140.7471101,函館市昭和１丁目１−２１,1
海鮮中華 海風楼（ラビスタ函館ベイ）,41.7679439,140.7188473,函館市豊川町１２−６,1
shell bar　きさらぎ,41.77231980000001,140.7299588,函館市松風町７,1
おばんざい村かみ,41.7709417,140.7086077,函館市弁天町１５−２１,1
鮨処はこだて,41.7726187,140.7256479,函館市若松町９−１４ はこだて朝市どんぶり横丁市場内,1
函館まるかつ水産 柏木店,41.7876712,140.7653697,函館市柏木町１−３６,3
すし蔵,41.7876635,140.7510221,函館市本町４−２１,1
中国料理 香蘭（ホテル函館ロイヤル シーサイド）,41.7690156,140.7331343,函館市大森町１６−９,1
鳳蘭,41.771485,140.7308576,函館市松風町５−１３,1
ラ・リヴィエール,41.8107699,140.7677107,函館市鍛治２丁目３９−１２,1
らーめん＆カレーぱんだ,41.7726627,140.729532,函館市若松町１８−４,1
活魚料理 いか清,41.786392,140.7506277,函館市本町２−１４,1
夜景バー エステラード（プレミアホテル-CABIN PRESIDENT-函館）,41.7726789,140.7265103,函館市若松町１４−１０ プレミアホテル-CABIN PRESIDENT-函館 13F,3
【閉店】カクテルBarかなざわ,41.7717748,140.7337418,函館市松風町１５−４,2
Endeavour,41.7801807,140.7845582,函館市湯川町１丁目２６−２４,1
丸山園茶舗 湯の川店,41.7814132,140.7903425,函館市湯川町２丁目２７−２９,3
七重浜海浜公園,41.81391139999999,140.7043347,函館市日本、〒049-0111 北海道北斗市七重浜１丁目１,7
七財橋,41.7672067,140.7172154,函館市豊川町１１−３,9
五稜郭アーカイブ（五稜郭交差点地下横断歩道）,41.7894415,140.7505384,函館市本町７,9
旧松橋商店（港の庵）,41.769179,140.7108453,函館市大町８−２６,9
赤松街道,41.8836674,140.7001716,函館市日本、北海道 赤松街道,10
函館中華会館,41.7680485,140.7094651,函館市大町１−１２ 中華会館,9
弥生坂,41.7674101,140.7068082,函館市弥生町５ 弥生坂通,7
鷲ノ木遺跡・ストーンサークル,42.1159727,140.5260062,函館市日本、〒049-2321 北海道茅部郡森町鷲ノ木町,4
松前矢越道立自然公園「矢越海岸」,41.39846,140.1996767,函館市日本、〒049-1524 北海道松前郡松前町白神,7
旧百十三銀行本店（SEC電算センタービル）,41.7660286,140.7138133,函館市末広町２２−１ ＳＥＣ末広ビル,9
船見坂,41.7671993,140.700445,函館市船見町,7
石川啄木座像（啄木小公園）,41.77253109999999,140.7541951,函館市日乃出町２５,10
幸坂,41.7671993,140.700445,函館市船見町,7
湯川黒松林,41.7753032,140.7830404,函館市湯川町１丁目７−５５,7
710candle（キャンドル作り）,41.7531373,140.7161271,函館市谷地頭町２５−１６,2
箱館戦争官軍上陸の地碑,41.9701074,140.132992,函館市日本、〒043-0103 北海道爾志郡乙部町緑町,8
函館湯川漁港,41.7739037,140.779739,函館市湯川町１丁目１−２０,7
傷心惨目の碑,41.7686204,140.6998582,函館市船見町２１−１１,8
史跡大船遺跡 定時解説,41.95768599999999,140.925449,函館市大船町５７５−１,6
旧野口梅吉商店,41.77230929999999,140.7076036,函館市弁天町２３−５,9
谷地坂,41.749828,140.7147307,函館市谷地頭町３１−２,7
実行寺,41.7688471,140.7019184,函館市船見町１８−１８,10
天祐寺,41.7590927,140.7189548,函館市青柳町２７−２６,10
汐首岬,41.7123044,140.958917,函館市汐首町 汐首岬,7
函館漁港 船入澗防波堤,41.7715002,140.6996861,函館市入舟町４−４,9
函館七飯ゴンドラ,41.9614188,140.7663678,函館市日本、〒041-1352 北海道亀田郡七飯町軍川,7
半月堡,41.79519999999999,140.7554201,函館市五稜郭町４４,8
蕎麦彩彩　久留葉,41.7638214,140.7142756,函館市元町３０−７,2
函館 さくら家,41.76428560000001,140.7107529,函館市元町１４−６,1
土饅頭,41.7964118,140.7553255,函館市五稜郭町４４−１,8
函館アリーナ,41.7819528,140.7835209,函館市湯川町１丁目３２−２,4
権現台場跡（旧函館東照宮）,41.8186033,140.7663935,函館市神山３丁目１８−１,8
箱館ハイカラ號,41.7650379,140.7090998,函館市元町１１−１３ 旧函館区公会堂内,6
史跡垣ノ島遺跡 定時解説,41.9289367,140.9467266,函館市臼尻町４１６−４,6
はこだて（大門）グリーンプラザ,41.7720397,140.7316952,函館市松風町１０−６２,7
旧函館博物館一号・二号,41.7565799,140.7152783,函館市青柳町１７−５,9
チャチャ登り,41.762518,140.7125038,函館市元町 チャチャ登り,7
武井の島,41.7159425,141.0300348,函館市浜町,7
かもめ島,41.8676868,140.1142366,函館市日本、〒043-0041 北海道檜山郡江差町姥神町1番地,7
石井家住宅,41.7643864,140.71167,函館市元町１４,9
五稜郭歴史回廊（五稜郭タワー）,41.7946699,140.75402,函館市五稜郭町４３−９,6
金森ベイクルーズ,41.76663,140.7179503,函館市豊川町１１−５,2
きじひき高原キャンプ場,41.924719,140.6145796,函館市日本、〒041-1244 北海道北斗市村山１７４,4
相馬株式会社社屋,41.7675595,140.7113734,函館市大町９−１,9
基坂,41.7665775,140.7107248,函館市 基坂,7
足形付土版（足形・手形付土製品）,41.9278839,140.9448834,函館市臼尻町５５１−１,6
元和台海浜公園　海のプール,42.008573,140.1035345,函館市日本、〒043-0114 北海道爾志郡乙部町元和,7
いにしえ街道,41.8675577,140.1266698,函館市日本、〒043-0041 北海道檜山郡江差町姥神町,6
旧中村家住宅,41.86909369999999,140.1288013,函館市日本、〒043-0034 北海道檜山郡江差町中歌町２２,10
トラピスチヌ修道院,41.78717359999999,140.820793,函館市上湯川町３４４,9
旧官修墳墓（新政府軍墓地）,41.7597582,140.7132722,函館市青柳町８−１１,8
日露友好の碑,41.761297,140.7191951,函館市宝来町８−８,8
諸術調所跡,41.76660999999999,140.7102912,函館市弥生町２,8
箱館丸,41.7718473,140.710417,函館市大町１４−１３,8
旧カール・レイモン居宅,41.7635576,140.7144153,函館市元町３０−３ 旧カールレイモン宅,9
ショッピング＆フードエリア「ほっくる」,41.9038792,140.6487657,函館市日本、〒041-1242 北海道北斗市市渡１丁目１−７,3
伊能忠敬記念碑,41.7592693,140.7042623,函館市函館山,10
高田屋恵比須神社,41.7653553,140.7151914,函館市末広町２３−２,8
八雲町郷土資料館・八雲町木彫り熊資料館,42.254296,140.268302,函館市日本、〒049-3112 北海道二海郡八雲町末広町,6
松原家住宅,41.8190547,140.7660355,函館市神山３丁目１９−８ メゾングリーンヒルズ,9
史跡勝山館跡,41.80151800000001,140.1008188,函館市日本、〒049-0601 北海道檜山郡上ノ国町勝山,6
五稜郭公園,41.7968814,140.7561138,函館市五稜郭町４４−２,7
函館山登山バス,41.7590405,140.7036218,函館市函館山,7
川汲公園,41.89100249999999,140.9605963,函館市川汲町２０８５,4
明治天皇御上陸記念碑,41.7675762,140.7118145,函館市末広町２１,10
恵山日ノ浜海岸,41.77829029999999,141.1011139,函館市日ノ浜町,7
立待岬,41.7450354,140.7212027,函館市住吉町９−９,7
青函連絡船海難者殉難碑,41.7579886,140.7117503,函館市函館山１２,10
日和坂,41.7662178,140.712338,函館市末広町 日和坂,7
遺愛幼稚園,41.763352,140.711879,函館市元町４−１,9
高田屋屋敷跡,41.76197459999999,140.7210251,函館市宝来町２４−２４,8
旧開拓使函館支庁書籍庫,41.7652591,140.7099164,函館市元町１−１２−２４,9
函館護国神社（亀石）,41.759291,140.7133523,函館市青柳町９−２３,8
日本基督教団 函館千歳教会,41.789258,140.7607326,函館市松陰町９−６,9
青柳坂,41.75838299999999,140.7179463,函館市青柳町２３,7
八幡坂,41.76495540000001,140.712976,函館市 八幡坂,7
旧梅津商店（はこだて工芸舎）,41.764021,140.7190035,函館市末広町８−８,9
湯倉神社,41.7822064,140.7910424,函館市湯川町２丁目２８−１,10
横綱千代の山・千代の富士記念館,41.4792439,140.2555344,函館市日本、〒049-1312 北海道松前郡福島町福島１９０ 185,10
函館市縄文文化交流センター,41.9278839,140.9448834,函館市臼尻町５５１−１,6
道南四季の杜公園,41.8478113,140.7686652,函館市亀田中野町 亀田中野町１９９－２,5
元町ガラス工房,41.767022,140.7108818,函館市大町１−３３,2
恵山岬灯台（恵山岬灯台公園）,41.8152059,141.1834754,函館市恵山岬町,7
はこだてキッズプラザ,41.772911,140.7286681,函館市若松町２０−20番1号 4階,5
軌道自転車体験施設　道南トロッコ鉄道,41.67088,140.4120593,函館市日本、〒049-0455 北海道上磯郡木古内町鶴岡７３,6
函館 蔦屋書店,41.83067399999999,140.735661,函館市石川町８５番１号,3
函館アリーナ キッズルーム,41.7819528,140.7835209,函館市湯川町１丁目３２−２,5
大森浜（啄木小公園）,41.77253109999999,140.7541951,函館市日乃出町２５,7
旧戸井線,41.7110548,140.9633469,函館市汐首町１３７−２,7
史跡大船遺跡,41.95768599999999,140.925449,函館市大船町５７５−１,6
ジュエリーかまた（リングラム）函館店（ペアリング作り）,41.823694,140.736684,函館市昭和３丁目３０−４３ テーオー小笠原テナントビル,2
きじひき高原（パノラマ展望台）,41.9439146,140.6164079,函館市日本、〒041-1244 北海道北斗市村山,7
はこだて工芸舎（陶芸体験）,41.764021,140.7190035,函館市末広町８−８,2
穴澗海岸,41.76238250000001,140.6926719,函館市入舟町２２−２２,7
船魂神社,41.7634305,140.7100201,函館市元町７−２,10
はこだて明治館 サンドブラスト体験工房,41.7666404,140.7187594,函館市豊川町１１−１７,2
東大沼キャンプ場,42.0118058,140.7164335,函館市日本、〒041-1351 北海道亀田郡七飯町東大沼,5
北斗市運動公園,41.8248475,140.6350557,函館市日本、〒049-0152 北海道北斗市押上１丁目３,4
函館どさんこファーム,41.8199499,140.809077,函館市東山町１８０−１４,5
温泉蒸し処（道の駅 しかべ間歇泉公園）,42.0286371,140.8300577,函館市日本、〒041-1402 北海道茅部郡鹿部町鹿部18番地1 内 道の駅しかべ間歇泉公園,1
サラキ岬,41.7001539,140.5243937,函館市日本、〒049-0404 北海道上磯郡木古内町亀川,10
薬師山,41.6840887,140.4357222,函館市日本、〒049-0431 北海道上磯郡木古内町木古内,10
根崎公園,41.7755169,140.7955863,函館市湯川町３丁目６,5
新撰組屯所跡地（旧称名寺）,41.7688632,140.7087565,函館市大町４−６,10
史跡志苔館跡,41.7657778,140.8221466,函館市志海苔町,6
北海道カントリークラブ（大沼コース・プリンスコース）,41.9892456,140.6550143,函館市日本、〒041-1355 北海道亀田郡七飯町西大沼,5
函館 和洋モダン貸衣裳館　はこだて明治館店,41.766575,140.7189133,函館市豊川町１１−１７ はこだて 明治 館 2F,2
函館酪農公社（牛とのふれあい）,41.7728992,140.8411175,函館市中野町１１８,5
噴火湾パノラマパーク,42.2271363,140.3138963,函館市日本、〒049-3124 北海道二海郡八雲町浜松３６８−８,5
ともえ大橋,41.774547,140.7246571,函館市若松町１２,7
史跡松前藩戸切地陣屋跡,41.8542555,140.6192755,函館市日本、〒049-0158 北海道北斗市野崎,7
生田ステンドグラス 函館アトリエ,41.7670445,140.7108435,函館市大町１−３３ 生田ステンドグラス,2
駒ケ岳神社,42.00726489999999,140.6993965,函館市日本、〒041-1351 北海道亀田郡七飯町東大沼,10
HAKODATE ADVENTURE TOUR（カヌーツアー）,41.7749256,140.7680699,函館市広野町１−５,7
白鳥台セバット,41.9892877,140.6660159,函館市日本、〒041-1355 北海道亀田郡七飯町西大沼,7
旧北海道庁函館支庁庁舎（Jolly Jellyfish 元町公園店）,41.7652358,140.709552,函館市元町１２−１８ 元町公園内 旧北海道庁函館支庁庁舎,9
はこだて明治館　手作りオルゴール工房,41.7666404,140.7187594,函館市豊川町１１−１７,2
元町配水場,41.7615559,140.7129388,函館市元町１−４,7
太刀川家住宅店舗,41.7713633,140.7086598,函館市弁天町１５−１５,9
大正湯,41.7706784,140.7031326,函館市弥生町１４−９,9
【閉店】スカイラウンジ カフェ・ペルラ,41.76194159999999,140.7139334,函館市元町１８−１１ 情報複合ビルいるか８０７,3
函館市北洋資料館,41.79377640000001,140.756042,函館市五稜郭町３７−３７−８ 北洋資料館,6
噴火湾ビューポイント（北斗船歌碑）,42.0289033,140.8307942,函館市日本、〒041-1402 北海道茅部郡鹿部町鹿部１８,7
函館の消火栓,41.765043,140.7165535,函館市末広町１５−１,9
北海道新幹線ビュースポット（木古内町）,41.66403379999999,140.4179811,函館市日本、〒049-0452 北海道上磯郡木古内町建川３９−４,7
史跡垣ノ島遺跡 発掘体験,41.9289367,140.9467266,函館市臼尻町４１６−４,6
プレイリーハウス（旧佐田邸）,41.7651032,140.7117592,函館市元町３２−１０,9
ながまれ号（道南いさりび鉄道）,41.7765673,140.7284161,函館市若松町１２−５,6
高田屋嘉兵衛銅像,41.76114069999999,140.7187984,函館市宝来町９,10
新島襄海外渡航の地碑,41.766626,140.7145884,函館市末広町２４−１０,10
函館市文学館,41.7663509,140.7132732,函館市末広町２２−５,6
空港緑地 高松展望広場,41.7714884,140.808939,函館市高松町４３５−７８,5
日浦洞門,41.7356512,141.0584346,函館市日浦町,7
市電操車塔,41.7638957,140.7181438,函館市末広町５,9
函館市立弥生小学校,41.7682078,140.7082995,函館市弥生町４−１６,9
亀田八幡宮,41.7915686,140.7365793,函館市八幡町３−２,8
幕末の軍艦 開陽丸記念館,41.86595819999999,140.1174309,函館市日本、〒043-0041 北海道檜山郡江差町姥神町１−１０,10
称名寺,41.7693032,140.701385,函館市船見町１８−１４,10
【休館中】旧相馬家住宅,41.76524819999999,140.7108958,函館市元町３３−２,9
山上大神宮,41.766264,140.7010419,函館市船見町１５−１,10
茶房　旧茶屋亭,41.7654179,140.717322,函館市末広町１４−２８,2
遊漁船「第18金龍丸」（イカ釣り）,41.75480599999999,140.7205654,函館市青柳町４０,7
五稜郭タワー,41.7946699,140.75402,函館市五稜郭町４３−９,9
カトリック元町教会,41.7632656,140.7129206,函館市元町１５−３０ 元町教会,9
旧函館区公会堂,41.7650219,140.7089348,函館市元町１１−１３ 旧函館区公会堂内,9
函館山ロープウェイ,41.7609168,140.7143123,函館市元町１９−７,7
北海道東照宮（函館東照宮）,41.8386857,140.7850888,函館市陣川町８２−１５３,8
土方歳三最期の地碑,41.7770526,140.731072,函館市若松町３３−６,8
観光遊覧船ブルームーン,41.7669896,140.7161056,函館市末広町１４−１７,7
元町公園,41.7654424,140.7094791,函館市元町１２−１８,7
石崎地主海神社,41.7628193,140.9061161,函館市白石町２４８,10
大沼国定公園,41.98384729999999,140.6721442,函館市日本、〒041-1354 北海道亀田郡七飯町大沼町,7
特別史跡五稜郭跡,41.7969245,140.7567838,函館市五稜郭町４４−４４,10
桜が丘通の桜並木,41.78790839999999,140.7640851,函館市松陰町２７,10
名勝旧岩船氏庭園（香雪園）、見晴公園,41.7919847,140.8028251,函館市見晴町５６,7
函館公園,41.7563506,140.7158338,函館市青柳町１７−１７番地,7
金森赤レンガ倉庫（観光スポット）,41.76649270000001,140.7163777,函館市末広町１４−１２,9
函館山展望台,41.75945960000001,140.7046519,函館市函館山,7
函館ハリストス正教会,41.7627913,140.7122004,函館市元町３−１３,9
湯川寺,41.7811756,140.7930213,函館市湯川町３丁目３５−１０,10
あうん堂ホール,41.7724594,140.7307094,函館市松風町８−６ あうん堂ホール,3
すりばち山,41.757577,140.7163083,函館市青柳町１６−１７,8
函館市電,41.7767082,140.7393351,函館市 函館市電,6
坂本龍馬像,41.7568218,140.7169347,函館市青柳町１９−５,10
台風海難者慰霊碑（洞爺丸慰霊碑）,41.8196172,140.6945134,函館市日本、〒049-0111 北海道北斗市七重浜７丁目１６,10
旧岡本邸,41.76483729999999,140.7116964,函館市元町３２−５,9
旧日本銀行函館支店（函館市北方民族資料館）,41.7671515,140.7119756,函館市末広町２１−７,9
函館市中央図書館,41.7984886,140.7538458,函館市五稜郭町２６−１,6
弁天台場跡,41.7744063,140.7041439,函館市弁天町２０,10
バーチャル縄文遺跡発掘ツアー,41.772895,140.7284597,函館市若松町２０−１ キラリス函館 3階,6
茶房　無垢里（観光スポット）,41.7649702,140.7107859,函館市元町１３−１４,9
函館市民会館,41.7830086,140.7840424,函館市湯川町１丁目３２−１,4
旧亀井邸,41.7650219,140.7089348,函館市元町１１−１３ 旧函館区公会堂内,9
えびす屋 函館店,41.7650108,140.719914,函館市豊川町７−２４ トヨカワコモンズ,6
常盤坂,41.768688,140.7065023,函館市弥生町１７,7
松前城資料館,41.4298799,140.1084293,函館市日本、〒049-1511 北海道松前郡松前町松城１４４,9
五稜郭タワー展望台,41.7946699,140.75402,函館市五稜郭町４３−９,8
高龍寺達磨大師,41.7907604,140.8177475,函館市上湯川町３４４,10
みそぎ浜,41.6745479,140.4386183,函館市日本、〒049-0451 北海道上磯郡木古内町新道,7
二股口古戦場跡（二股台場）,41.9453821,140.5455832,函館市日本、〒041-1243 北海道北斗市村山,10
函館港末広緑地（函館西波止場広場）,41.76671099999999,140.7153678,函館市末広町２４,9
函館市入舟町　前浜海水浴場,41.76238250000001,140.6926719,函館市入舟町２２−２２,7
白石公園はこだてオートキャンプ場,41.75698080000001,140.9010308,函館市白石町２０８,5
南茅部河川公園,41.93863460000001,140.9134388,函館市豊崎町394−２,4
大沼湖畔周遊道路（東屋・木道・北緯42°の標）,42.00510209999999,140.716125,函館市日本、〒041-1351 北海道亀田郡七飯町大沼町,7
恵山海浜公園キャンプ場,41.7788569,141.1009141,函館市日ノ浜町３１−２,5
浜のかあさん地元料理体験（道の駅 しかべ間歇泉公園）,42.02870009999999,140.830418,函館市日本、〒041-1402 北海道茅部郡鹿部町鹿部18番地1 内 道の駅しかべ間歇泉公園,1
大沼流山牧場 Parrd Musée,42.0018518,140.7181397,函館市日本、〒041-1351 北海道亀田郡七飯町東大沼２９４−１,5
梁川交通公園,41.7925802,140.7475544,函館市梁川町２４−２,5
新島襄ブロンズ像,41.766626,140.7145884,函館市末広町２４−１０,10
築城果樹園（収穫体験）,41.8838549,140.7082492,函館市日本、〒041-1112 北海道亀田郡七飯町鳴川４丁目２９７,3
ダム公園,41.8666028,140.7839571,函館市亀田中野町３６３,7
福島町青函トンネル記念館,41.48533949999999,140.2546929,函館市日本、〒049-1331 北海道松前郡福島町三岳３２−１,6
史跡垣ノ島遺跡,41.9289367,140.9467266,函館市臼尻町４１６−４,6
旧函館郵便局（はこだて明治館）,41.7666205,140.7188267,函館市豊川町１１−１７,9
高龍寺,41.7686704,140.7002125,函館市船見町２１−１１,10
千代台公園野球場（オーシャンスタジアム）,41.7852523,140.7467244,函館市千代台町２２−２６ 千代台公園内,5
函館駅前バスターミナル,41.77334339999999,140.7279973,函館市若松町１２−１２ 函館駅前【６番のりば】,4
旧丸井今井百貨店（函館市地域交流まちづくりセンター）,41.7637769,140.7170436,函館市末広町４−１９,9
函館市旧イギリス領事館（開港記念館）,41.76594980000001,140.7106585,函館市元町３３−１４,9
駒ケ岳,42.063333,140.677222,函館市日本、〒049-2301 北海道茅部郡森町尾白内町 北海道駒ヶ岳,7
松前公園,41.430148,140.1076564,函館市日本、〒049-1511 北海道松前郡松前町松城,7
松前藩屋敷,41.4340192,140.1043287,函館市日本、〒049-1507 北海道松前郡松前町西館６８−６８,6
青函トンネル北海道側出入口,41.5981746,140.3276993,函館市日本、〒049-1221 北海道上磯郡知内町湯ノ里,7
矢越クルーズ（青の洞窟クルーズ）,41.53359,140.422462,函館市日本、〒049-1105 北海道上磯郡知内町小谷石９９−８,7
函館市熱帯植物園,41.7740093,140.7895005,函館市湯川町３丁目１−１５,5
史跡四稜郭,41.82566,140.7706172,函館市神山町,10
城岱牧場（管理棟展望台）,41.9247662,140.7098866,函館市日本、〒041-1104 北海道亀田郡七飯町上藤城564,7
JRA函館競馬場,41.78347979999999,140.7759614,函館市駒場町１２−２,5
昭和公園,41.8147472,140.7264968,函館市昭和町２０−６,5
オニウシ公園,42.10206609999999,140.5703795,函館市日本、〒049-2311 北海道茅部郡森町上台町３２６,7
函館公園　こどものくに,41.7566198,140.7166045,函館市青柳町１７−４,5
市民の森,41.7879537,140.8176406,函館市上湯川町３２７−１,5
青葉ヶ丘公園,42.10171469999999,140.5756401,函館市日本、〒049-2327 北海道茅部郡森町清澄町,7
笹流ダム（前庭広場）,41.8335432,140.7707412,函館市赤川町３１３,7
はこだてみらい館,41.772895,140.7284597,函館市若松町２０−１ キラリス函館 3階,6
国宝　中空土偶,41.9278839,140.9448834,函館市臼尻町５５１−１,6
旧ロシア領事館,41.7676419,140.7020206,函館市船見町１７−３,9
緑の島,41.77071480000001,140.7138851,函館市大町１５,7
真宗大谷派　函館別院（東本願寺）,41.7629356,140.7140386,函館市元町１６−１５,10
ブラキストンの碑,41.75933329999999,140.703743,函館市函館山テレビ送信所,10
裏門橋,41.7985788,140.7567856,函館市五稜郭町４４,8
日本最古のコンクリート電柱,41.765043,140.7165535,函館市末広町１５−１,8
旧笹浪家住宅および附属土蔵,41.80340410000001,140.1043272,函館市日本、〒049-0612 北海道檜山郡上ノ国町上ノ国236 番地,10
土塁,41.7959755,140.7559805,函館市五稜郭町４４−４４,8
アーレンスフォックス号（ポンプ消防車）,41.768921,140.727252,函館市東雲町５−９,9
童子岩,41.7635711,140.7100646,函館市元町７−２,10
北辰殿,41.7690437,140.7024119,函館市船見町１８−０４０ 0055 １８ 実行寺,10
久慈次郎銅像,41.785722,140.7478855,函館市千代台町２７−２,10
遺愛女学校跡,41.787316,140.7573179,函館市杉並町２３−１１,9
東海山地蔵堂,41.7479646,140.7184841,函館市住吉町１６−１,10
函館市芸術ホール,41.7933713,140.755813,函館市五稜郭町３７−８,4
魚見坂,41.77136309999999,140.702288,函館市入舟町 魚見坂,7
咬菜園跡,41.76615270000001,140.705861,函館市船見町３,10
千歳坂,41.7671993,140.700445,函館市船見町,7
稲倉石古戦場　碧血碑,41.9515748,140.4007587,函館市日本、〒043-1235 北海道檜山郡厚沢部町峠下,8
姿見坂,41.7681778,140.7059702,函館市弥生町,7
函館海産商同業協同組合事務所,41.7653278,140.7162899,函館市末広町１５−３,9
RESTAURANT 唐草館,41.7567649,140.7177253,函館市青柳町２１−２３,1
cafe DripDrop,41.7638739,140.7168449,函館市末広町４−１９ 地域交流まちづくりセンタ 内,1
あさり坂,41.7582144,140.7235653,函館市宝来町,7
函館YWCA,41.78641199999999,140.758757,函館市松陰町１−１２,9
護国神社坂,41.7582144,140.7235653,函館市宝来町,7
【休館中】函館市灯台資料館（ピカリン館）,41.8160366,141.182023,函館市恵山岬町８０−９,6
北海道建網大謀網漁業発祥之地碑,41.8932334,141.0242141,函館市尾札部町２４２,10
己巳役海軍戦死碑,41.7657755,140.7038671,函館市船見町６−５,7
箱館戦争川汲戦戦死者慰霊碑,41.89680389999999,140.9640936,函館市川汲町川汲温泉前（バス,8
喫茶ニューサロン海峡,41.7728452,140.7214234,函館市若松町１２−１２ 青函連絡船記念館 摩周丸 3F,6
季節居酒屋 ひろべ,41.83484490000001,140.7350737,函館市桔梗町４１８−２１２,1
海鮮居酒屋ヤン衆漁場 二代目昌栄丸,41.771634,140.731748,函館市松風町１０−３,1
【2025年1月27日閉店】千秋庵菓寮,41.8009218,140.7681715,函館市本通２丁目２９−１０,3
北の台所　ヤマタイチ,41.7725444,140.7300679,函館市松風町７−５,1
ブラッスリー カリヨン,41.7651065,140.7166522,函館市末広町１５−１ ルネッサンス 末広,1
【2024/9/30閉店】Restaurant & Bar「1854 HAKODATE」（函館空港内）,41.77543769999999,140.8162002,函館市高松町５１１,4
函館海鮮居酒屋 魚まさ 五稜郭総本店,41.7883347,140.7506129,函館市本町４−７,1
スープカリー奥芝商店 函館店 道南でSHOW,41.7879292,140.7447218,函館市梁川町７−１５,1
函館鮨処 ひろ季,41.78940679999999,140.7533335,函館市本町２６−１７ ホテルマイステイズ五稜郭 ２階,1
ビストロ HAKU,41.797783,140.7633768,函館市本通１丁目７−１８,1
Cafe en,41.836871,140.764713,函館市赤川町３６５−５,3
レストラン　アシェット キャプリス,41.7747315,140.7835281,函館市湯川町１丁目２−２０,1
うにむらかみ 函館本店,41.7719013,140.7243531,函館市大手町２２−１,1
cafe えるじろう（2023年3月25日閉店）,41.7634307,140.7172134,函館市末広町５−８,3
Cafe miss Jeanie（HAKODATE 男爵倶楽部 HOTEL & RESORTS）,41.771282,140.7244869,函館市大手町２２−１０ ＨＡＫＯＤＡＴＥ男爵倶楽部ＨＯＴＥＬ＆ＲＥＳＯＲＴＳ HOTEL & RESORTS,3
海鮮料理と釜めし あらき,41.77228069999999,140.7252299,函館市若松町９−２２ 函館朝市ひろば 1階,1
北海道塩ジンギスカン 名前はまだ無い。,41.7948104,140.7352683,函館市亀田町１４−１,1
【2024/2/28閉店】函館ラーメンえん楽,41.784413,140.7502341,函館市千代台町３１−１８,1
restaurant Toui,41.7773531,140.7301695,函館市若松町３２−１９ ロイヤルシティ参番館 1F,1
そば処 えびす庵本店,41.78970899999999,140.751429,函館市本町７−１４,1
食事処 公楽,41.9339598,140.9473864,函館市臼尻町１４９−１８,1
CASANOVA,41.7705943,140.7447445,函館市宇賀浦町７−７,3
サザン食堂,41.7891922,140.7506452,函館市本町６−１１,1
道の駅 YOU・遊・もり,42.0995546,140.5680527,函館市日本、〒049-2311 北海道茅部郡森町上台町３２６−１８,3
道の駅 つど～る・プラザ・さわら,42.1251914,140.6673772,函館市日本、〒049-2222 北海道茅部郡森町砂原２丁目３５８−１,3
茶房 ひし伊（旧入村質店）,41.7608606,140.7188587,函館市宝来町９−４,3
G4 Space（SODAPOP）,41.7712545,140.7297523,函館市松風町６−１８,6
はこだて明治館,41.7666205,140.7188267,函館市豊川町１１−１７,3
函館まるなま水産,41.7743094,140.7275752,函館市若松町１２−８ ハコビバ,1
シーグラスギャラリー　海からの贈りもの,41.76686100000001,140.712861,函館市末広町２１,2
やきだんご 銀月,41.7798767,140.787265,函館市湯川町２丁目２２−５,3
道の駅 なないろ・ななえ,41.9259461,140.657323,函館市日本、〒041-1102 北海道亀田郡七飯町峠下３８０−２,3
ほっとマルシェおがーる,41.9038792,140.6487657,函館市日本、〒041-1242 北海道北斗市市渡１丁目１−７,3
じゃがいもFACTORY,41.79380829999999,140.7508247,函館市五稜郭町３−１６,3
北海道四季彩館JR函館店（JR函館駅売店）,41.7737868,140.7261137,函館市若松町１２−１３,3
はこだて海鮮市場本店,41.7670812,140.7189051,函館市豊川町１２−１２,3
六花亭　五稜郭店,41.796375,140.7532887,函館市五稜郭町２７−６,3
函館洋菓子スナッフルス 金森洋物館店,41.7667231,140.716587,函館市末広町１３−９,3
五稜郭タワー売店,41.7947383,140.7539824,函館市五稜郭町４３−９,3
函館朝市,41.7724585,140.7256912,函館市若松町９−１９,3
津軽海峡フェリー函館ターミナル売店,41.8075807,140.7105434,函館市港町３丁目１９−２,3
中島廉売,41.7813161,140.7436036,函館市中島町２２,3
函館朝市ひろば,41.7722914,140.7251981,函館市若松町９−２２,3
はこだて自由市場,41.7733017,140.7344734,函館市新川町１−２ 自由市場,3
BAR hanabi,41.7624241,140.7213568,函館市宝来町３４−１ 蔵,3
味の一番,41.7728172,140.7250237,函館市若松町１１−１３,1
【2024/9/30閉店】Restaurant & Bar「1854 HAKODATE」,41.7755793,140.8160277,函館市高松町５１１ 2階 函館空港 国内線旅客ターミナルビル 3F,3
maison FUJIYA Hakodate,41.7624031,140.7139243,函館市元町１７−１７,3
3valley,41.7761016,140.7763486,函館市湯浜町９−２８,1
【2024/3/31閉店】市場亭,41.7731428,140.7343238,函館市新川町１−２,1
【休業中】和食処・寿司処 きたまえ船（ホテル函館ロイヤル シーサイド）,41.7689721,140.7330397,函館市大森町１６−９,1
居酒屋 兆治,41.7708873,140.7336774,函館市松風町１３−４,1
辺見旅館,41.77064399999999,140.7279346,函館市若松町４−６,1
喫茶 想苑,41.7565384,140.7146606,函館市青柳町３−１５,3
喫茶ボルヤン,41.7982816,140.7534488,函館市五稜郭町２６−１,3
CASA FLOR,41.7642442,140.7156987,函館市末広町１７−１７,2
函館あかちょうちん 湯の川店,41.77999020000001,140.7857094,函館市湯川町１丁目２７−２,1
四季風味 ささ樹,41.77170780000001,140.7319878,函館市松風町１０−２,3
キッチンバー　ボーダー,41.7658394,140.7190193,函館市豊川町１０−２０,1
うみまち食堂 菜の花,41.780249,141.1016501,函館市日ノ浜町３５−１,1
フランス菓子ペシェ・ミニヨン,41.7794819,140.7611613,函館市乃木町１−２,3
レストラン イリュージョン,41.7948777,140.7444923,函館市白鳥町１７−１４,1
やき鳥かねまる,41.780066,140.7895357,函館市湯川町２丁目１９−１４,3
地場 炭小屋,41.79036979999999,140.7515664,函館市本町８−２０,1
BAR SHARES HISHII,41.7609042,140.7173784,函館市元町２７−１,3
BURGER SHOP HOT BOX,41.771211,140.732081,函館市松風町３−１１,1
ラッキーピエロ港北大前店,41.80898270000001,140.7163493,函館市港町３丁目１８−２８,3
はこだて市民の森売店,41.78730179999999,140.8198668,函館市上湯川町327ー1,3
ハセガワストア 函館駅前店,41.7728152,140.7262886,函館市若松町１４−１０,1
スターバックス コーヒー 函館ベイサイド店,41.7666572,140.7156771,函館市末広町２４−６ 函館西波止場,1
雷門鮨,41.77547209999999,140.7819148,函館市湯川町１丁目７−１,1
ラッキーピエロ 峠下総本店,41.92459729999999,140.6620182,函館市日本、〒041-1102 北海道亀田郡七飯町峠下３３７−１１,3
定食の店 たつみ食堂,41.7611076,140.7240547,函館市東川町６−１,1
ラッキーピエロ マリーナ末広店,41.7668797,140.7159801,函館市末広町１４−１７,3
ラーメン高橋屋,41.769433,140.7376581,函館市大森町３３−１,1
キングベーク 本店,41.8029321,140.7392653,函館市亀田本町７−８,3
すき焼 阿さ利本店,41.7605361,140.7199526,函館市宝来町１０−１１,1
HAKOYA函館空港店,41.77543769999999,140.8162002,函館市高松町５１１,1
手打そば久蔵,41.9389945,140.9351818,函館市豊崎町６４ 内 二本柳旅館,3
MOSSTREES,41.7685308,140.7112167,函館市大町９−１５,2
五島軒本店 レストラン雪河亭,41.7636099,140.7159168,函館市末広町４−５ 五島軒本店,1
函館ビヤホール,41.7665235,140.7164285,函館市末広町１４−１２ 函館ヒストリープラザ内,3
自家焙煎コーヒー ピーベリー,41.7972192,140.7538627,函館市五稜郭町２７−８,1
回転寿司 根室花まる キラリス函館店,41.77293,140.7286344,函館市若松町２０−１ キラリス函館 地下 1階,1
朝市食堂　二番館,41.7725962,140.7250293,函館市若松町９−１９ 2F,1
ハセガワストア　中道店,41.8077009,140.7622912,函館市中道２丁目１４−１６,1
きくよ食堂　本店,41.77268919999999,140.7247447,函館市若松町１１−１５,1
Café&Diner 「FLIGHT FRY」,41.77539700000001,140.8157191,函館市高松町５１１−２ ２F 搭乗エリア内,3
そば処 東京庵本店,41.7632649,140.7166685,函館市末広町４−２４,1
ジンギスカン函館吉田,41.7724317,140.7306951,函館市松風町８−６ あうん堂ホール,1
ジンギスカン テムジン,41.7808197,140.7844698,函館市湯川町１丁目２９−４,1
印度カレー　小いけ本店,41.7621501,140.7195157,函館市宝来町２２−５,1
らーめんのりんさん,41.7757464,140.780689,函館市湯川町１丁目９−１３,1
函館とんき 大門店,41.77144699999999,140.7308545,函館市松風町５−１３,1
ホテル函館ひろめ荘 レストラン磯亭,41.9371364,140.9126419,函館市大船町８３２−２,3
ラ・コンチャ・イ・バスク（もとバルレストラン ラ・コンチャ（La Concha））,41.7657281,140.7162306,函館市末広町１４−６,3
【2023年11月15日閉店】きくよ食堂　ベイエリア店,41.7670909,140.7197594,函館市豊川町１２−９ 函館ベイ美食倶楽部きくよ食堂,1
函館ダイニング　雅家,41.7724904,140.7261475,函館市若松町８−１４,1
まるたま小屋,41.762147,140.7131869,函館市元町２−３,1
Comme chez vous,41.7624536,140.7200021,函館市宝来町２２−12 1 階右,3
お肉のつしま はこだて和牛焼肉レストラン,41.797869,140.7475019,函館市田家町１２−１３,1
はこだてビール,41.7682229,140.7214567,函館市大手町５−２２ 明治館通り,3
ハーバーダイニング（プレミアホテル-CABIN PRESIDENT-函館）,41.77266059999999,140.7266713,函館市若松町１４−１０ プレミアホテル-CABIN PRESIDENT-函館 2F,1
寿し処 山昇,41.93513180000001,140.9394885,函館市臼尻町７３０,1
シェリーズバー（ラビスタ函館ベイ）,41.7677037,140.7190535,函館市豊川町１２−１３,2
【休業中】パノラマビューレストラン　グランポルト函館,41.7703611,140.732625,函館市松風町２−８,1
MILKISSIMO 五稜郭タワー店,41.79462239999999,140.7541516,函館市五稜郭町４３−９,3
ホットステーション珈夢,41.93356819999999,140.9472121,函館市臼尻町１４９−１５,3
Trattoria Piatti,41.8114085,140.752771,函館市富岡町３丁目２３−２２,1
KKRはこだて,41.7773707,140.7876322,函館市湯川町２丁目８−１４,5
ホテルかもめ館,41.7757887,140.7850843,函館市湯川町１丁目５−１８,5
湯の浜ホテル,41.7743203,140.7857144,函館市湯川町１丁目２−３０,5
ホテル雨宮館,41.780751,140.7837501,函館市湯川町１丁目２６−１８,5
ホテル万惣,41.7775584,140.784294,函館市湯川町１丁目１５−３,5
大黒屋旅館,41.77987789999999,140.7919779,函館市湯川町３丁目２５−１０,5
ＯＭＯ5函館By星野リゾート,41.7741388,140.7300065,函館市若松町２４−１,4
ホテル恵風「湯ったり館 とどぽっくる」,41.8142387,141.1806799,函館市恵山岬町６１−２,5
函館市恵山福祉センター（市民センター）,41.7900604,141.1532175,函館市柏野町１１７−２０９,5
湯元 漁火館,41.7725626,140.7961266,函館市根崎町３７５−１,5
駒ヶ峯温泉ちゃっぷ林館,42.0148957,140.6428662,函館市日本、〒049-2141 北海道茅部郡森町駒ヶ岳６５７−１６,5
函館市熱帯植物園足湯,41.7743542,140.7898747,函館市湯川町３丁目１−１２,5
しかべ間歇泉公園足湯,42.0284279,140.8306047,函館市日本、〒041-1402 北海道茅部郡鹿部町鹿部18番地1 道の駅しかべ間歇泉公園,5
七飯町健康センター　アップル温泉,41.85991099999999,140.708177,函館市日本、〒041-1131 北海道亀田郡七飯町中野１９４−１,5
Pres de La Mer,41.7706868,140.7079547,函館市弁天町１４−１４,4
LA CACHETTE（ラ・カシェット）,41.7805325,140.7907964,函館市湯川町２丁目１７−６,4
温泉旅館矢野,41.429213,140.1108929,函館市日本、〒049-1512 北海道松前郡松前町福山１２３,6
ホテルグローバルビュー函館（旧ホテルパコ函館）,41.7698981,140.7354565,函館市大森町２５−３,4
ラビスタ函館ベイ,41.7675029,140.7190054,函館市豊川町１２−６,8
知内温泉ユートピア和楽園,41.5957056,140.2945292,函館市日本、〒049-1221 北海道上磯郡知内町湯ノ里２８４,5
パティスリーメゾンフジヤ,41.7913281,140.7521784,函館市本町１７−２ ヴィルヌーブ五稜郭 2階,1
元祖インドカレー小いけ,41.7620783,140.7197678,函館市宝来町２２−４,1
ラッキーピエロ　十字街銀座店,41.7636489,140.719268,函館市末広町８−１１,3
BIANCHI,41.8249833,140.7409169,函館市石川町３１６−４,3
函館朝市 いくら亭,41.7728309,140.725418,函館市若松町９−１５,1
自家焙煎珈琲　Café TUTU,41.7659489,140.7172422,函館市末広町１３−５,1
ブルートレイン,41.7803825,140.7843548,函館市湯川町１丁目２６−２２,1
キッチン中華　あじたか,41.79381089999999,140.7534103,函館市五稜郭町３６−７ パークプラザ,1
ラッキーピエロ 函館駅前店,41.77176659999999,140.7255401,函館市若松町８−８ ２階,3
料亭 冨茂登,41.7609869,140.719219,函館市宝来町９−７,1
函館 鮨処 木はら,41.7747147,140.7877146,函館市湯川町２丁目１−２,1
津軽屋食堂,41.7726597,140.7301828,函館市松風町７−６,1
梅乃寿司 さくら通り,41.7865752,140.7637801,函館市柏木町１−19号,1
ラーメン 津つ井軒,41.7721689,140.7270363,函館市若松町７−１１,1
函館麺や一文字 総本店,41.7748946,140.7878955,函館市湯川町２丁目１−３,1
きんぎょ茶屋,41.7665903,140.7121946,函館市末広町２０−１８,1
欧風料理屋　紫ぜん,41.7662498,140.7194384,函館市豊川町１０−１０,2
函館麺厨房あじさいJR函館駅店,41.77358819999999,140.7260562,函館市若松町１２−１３ JR函館駅2階,1
ビストロやまくろ,41.76520250000001,140.7254003,函館市栄町１１−４ 11-4 2F,1
朝市食堂　函館ぶっかけ,41.77259,140.725759,函館市若松町９−１５,1
蛸焼 こがね,41.7616939,140.7197558,函館市宝来町２２−１,1
手打ちうどん そば　上野,41.7794335,140.7802831,函館市湯川町１丁目２３−６,1
レストラン ヨシヤ,41.7715981,140.704589,函館市弁天町５−６,1
ラーメン maido,41.7796454,140.7845116,函館市湯川町１丁目２６−３４,1
魚河岸酒場　魚一心,41.7710873,140.731966,函館市松風町３−１１,1
朝市お食事処 山三 道下商店,41.7726822,140.7255353,函館市若松町９−１５ 函館朝市どんぶり横丁,1
函館麺厨房あじさい　本店,41.7946641,140.7532456,函館市五稜郭町２９−２２,1
朝市の味処 茶夢,41.7727187,140.7253522,函館市若松町９−１５ どんぶり横丁市場内,1
和風とんかつ専門店 とん悦,41.761824,140.719714,函館市宝来町２２−２,1
居酒屋 山吹,41.770146,140.731235,函館市東雲町１８−８,1
函館 千秋庵総本家 宝来町本店,41.7611078,140.7194447,函館市宝来町９−９,3
ザ・ベリー・ベリー・ビースト,41.7623612,140.7206154,函館市宝来町２３−３,2
うなぎ処 高はし,41.799877,140.753207,函館市五稜郭町２４−６,1
函館山山頂展望台テイクアウトコーナー,41.7595149,140.7044159,函館市函館山函館山（展望台） 内,3
茶店バー　カフェ　やまじょう,41.76367359999999,140.7141513,函館市元町３０−５,3
新函館ラーメン マメさん（2023年8月閉店）,41.7623218,140.7193732,函館市宝来町２２−６ 22番地6番地,1
はこだて海鮮市場 いかいか亭,41.7670284,140.7190248,函館市豊川町１２−１２ はこだて海鮮市場本店,3
レイモンハウス元町店（グルメ）,41.7636486,140.7143058,函館市元町３０−３ 函館カールレイモン,3
蕎麦蔵,41.77091110000001,140.7033991,函館市弥生町２３−５,1
ハコダテソフトハウス元町　北櫻茶,41.7642079,140.7110812,函館市元町１４−４,3
ROMANTiCO ROMANTiCA,41.7715981,140.7082038,函館市弁天町１５−１２,1
一花亭　たびじ,41.7727043,140.7254987,函館市若松町９−１５ どんぶり横丁市場内,1
茶房　無垢里（グルメ）,41.7649702,140.7107859,函館市元町１３−１４,2
食の宝庫 北海道,41.7735679,140.7261039,函館市若松町１２,3
コーヒールーム きくち,41.7776932,140.7931879,函館市湯川町３丁目１３−１９,3
日本最古のストーブ,41.7636903,140.7169607,函館市末広町４−１９,8
鳥崎八景,42.0467969,140.4886583,函館市日本、〒049-2324 北海道茅部郡森町栗ヶ丘,4
日本基督教団函館教会,41.764563,140.713434,函館市元町３１−１９ 函館教会,9
兵糧庫,41.79675400000001,140.7556868,函館市五稜郭町４４−２,9
青函連絡船ゆかりの錨,41.7724623,140.7220913,函館市若松町１２,9
桜見本園,41.4321127,140.1092076,函館市日本、〒049-1511 北海道松前郡松前町松城,7
大千軒岳,41.5792927,140.1608332,函館市日本、〒049-1521 北海道松前郡松前町上川 大千軒岳,4
姥神大神宮,41.8665096,140.1250151,函館市日本、〒043-0041 北海道檜山郡江差町姥神町９８−９９番地,10
旧旅籠町界隈,41.7701017,140.7047431,函館市弥生町２２−２２ 幸坂,8
亀井勝一郎文学碑,41.7597978,140.7173901,函館市青柳町２５,10
高田屋嘉兵衛一族の墓・顕彰碑,41.7689029,140.7013987,函館市船見町１８,8
遺愛学院（旧遺愛女学校）本館・旧宣教師館,41.78579130000001,140.7570468,函館市杉並町２３,9
旧第一銀行函館支店（函館市文学館）,41.7663509,140.7132732,函館市末広町２２−５,9
函館 漁船クルーズ,41.7715002,140.6996861,函館市入舟町４−４,7
七飯町歴史館,41.8972,140.6952,函館市日本、〒041-1111 北海道亀田郡七飯町本町６丁目１−３,6
サンタロナカセ岩,41.7393693,141.0691832,函館市豊浦町,7
鯨族供養塔,41.7693528,140.7030311,函館市弥生町９,10
金森ホール,41.76636079999999,140.716024,函館市末広町１４−１２,4
東北以北最古のエレベーター,41.7636903,140.7169607,函館市末広町４−１９,4
本願寺函館別院（西本願寺）,41.76384719999999,140.7227051,函館市東川町１２−１２,10
函館湯の川球場跡地,41.7755169,140.7955863,函館市湯川町３丁目６,4
禅燈寺の仁王像,41.671247,140.4097676,函館市日本、〒049-0455 北海道上磯郡木古内町鶴岡１０３,10
旧金森船具店,41.7662419,140.7156496,函館市末広町１４−１２,9
南部坂,41.76553870000001,140.7150736,函館市末広町,7
榎本軍鷲ノ木上陸地跡,42.118998,140.538469,函館市日本、〒049-2321 北海道茅部郡森町鷲ノ木町１６１,8
江差追分会館・江差山車会館,41.868689,140.126652,函館市日本、〒043-0034 北海道檜山郡江差町中歌町１９３−３,6
函館フットボールパーク,41.8030016,140.7901881,函館市日吉町４丁目１９−１９番１,4
東坂,41.7723226,140.7146067,函館市大町,7
着てそぞろ（あつらえ庵）,41.7588956,140.7180948,函館市青柳町２４−１７,2
函館ゴルフ倶楽部,41.7931836,140.8062801,函館市見晴町５８,5
360 Studio,41.7728862,140.7286019,函館市若松町２０−１,6
かもめ島キャンプ場,41.8692897,140.1145802,函館市日本、〒043-0045 北海道檜山郡江差町鴎島,7
佐女川神社,41.6822824,140.4318844,函館市日本、〒049-0431 北海道上磯郡木古内町木古内１５５−１,10
函館空港,41.7757043,140.8158222,函館市高松町５１１,4
すずらんの丘公園パークゴルフ場,41.8074014,140.8068648,函館市滝沢町９３,4
函館四天王像,41.7654935,140.7093793,函館市元町１２−１８,10
湯の沢水辺公園,41.7946534,140.5494334,函館市日本、〒049-0285 北海道北斗市茂辺地市ノ渡,5
函館市戸井ウォーターパーク　オートキャンプ場,41.73186049999999,141.0306267,函館市原木町２８１,5
Blue Berry Farm HONDA（ブルーベリー狩り）,41.8364512,140.7853537,函館市陣川町８２−７２,3
FMいるかオープンスタジオ,41.7608204,140.7142358,函館市元町１９−７,6
空港緑地　志海苔ふれあい広場パークゴルフ場,41.76913709999999,140.8178551,函館市志海苔町２９４−１,4
鶉ダムオートキャンプ場ハチャムの森,41.947963,140.38611,函館市日本、〒043-1234 北海道檜山郡厚沢部町木間内６０−１,4
函館市民スケート場,41.7780305,140.764505,函館市金堀町１０−８,5
函館競輪場,41.7768543,140.7630258,函館市金堀町１０−８,9
函館パークカントリークラブ,41.8215499,140.8198069,函館市東山町１８５−１,5
青柳市民庭球場,41.7581981,140.713359,函館市青柳町９−９,5
千代台公園庭球場,41.785995,140.748242,函館市千代台町２７−２,5
白石公園パークゴルフ場,41.7569938,140.9006563,函館市白石町２０８,4
オートリゾート八雲,42.2289687,140.3076799,函館市日本、〒049-3124 北海道二海郡八雲町浜松３６８,4
函館護國神社,41.759291,140.7133523,函館市青柳町９−２３,8
北海道立函館美術館,41.7935857,140.7548018,函館市五稜郭町３７−６,6
元町教会群,41.7632656,140.7129206,函館市元町１５−３０ 元町教会,4
新選組最後の地碑,41.7728931,140.7042033,函館市入舟町６−６,10
石川啄木一族の墓,41.7474858,140.7194496,函館市住吉町１６,10
赤い靴の少女像,41.7661664,140.7145647,函館市末広町２３,10
北海道坂本龍馬記念館,41.7639457,140.7185921,函館市末広町８−６,6
西ふ頭,41.7748137,140.7106819,函館市弁天町２０,4
旧金森洋物店（市立函館博物館郷土資料館）,41.7661092,140.7128753,函館市末広町１９−１５,6
箱館高田屋嘉兵衛資料館,41.7658758,140.7176039,函館市末広町１３−２２,6
日暮山展望台,41.98038270000001,140.6436862,函館市日本、〒041-1355 北海道亀田郡七飯町西大沼,7
住三吉神社,41.748948,140.7159762,函館市住吉町１−７,10
活火山「恵山」,41.8047921,141.1660736,函館市御崎町 恵山,7
外国人墓地,41.7681153,140.6969092,函館市船見町２３,10
市立函館博物館,41.7559785,140.7147983,函館市青柳町１７−１,6
函館市北方民族資料館,41.7671515,140.7119756,函館市末広町２１−７,6
二十間坂,41.76553870000001,140.7150736,函館市末広町,7
厳島神社,41.7725714,140.7043355,函館市弁天町９−９,10
北島三郎記念館（閉館）,41.5983052,140.4190339,函館市日本、〒049-1103 北海道上磯郡知内町重内２１−１ ２階ロビ,6
燈台の聖母 トラピスト修道院,41.7402679,140.5692137,函館市日本、〒049-0283 北海道北斗市三ツ石３９２,7
ザ・グラススタジオイン函館（吹きガラス体験）,41.7653703,140.7168263,函館市末広町１４−２,2
五稜郭公園の貸ボート,41.7951945,140.7558488,函館市五稜郭町４４−５,2
旧函館区公会堂 はこだてハイカラ衣裳館,41.7650379,140.7090998,函館市元町１１−１３ 旧函館区公会堂内,2
函館聖ヨハネ教会,41.7625304,140.7127964,函館市元町３−２３ 聖ヨハネ教会,9
函館大沼セグウェイツアー,41.99403820000001,140.6422063,函館市日本、〒041-1355 北海道亀田郡七飯町西大沼 温泉 函館大沼プリンスホテル内,5
クラフトベース モノクラ,41.7655897,140.7164533,函館市末広町１４−５ クラフトベース モノクラ,3
八郎沼公園,41.88894639999999,140.6144133,函館市日本、〒041-1231 北海道北斗市向野１３２,7
大沼レイクゴルフクラブ,42.0118427,140.6459402,函館市日本、〒049-2142 北海道茅部郡森町赤井川２５２,5
函館カール・レイモン（工場見学）,41.809599,140.813303,函館市鈴蘭丘町３−９２,3
カネモリブリックラボ,41.76655309999999,140.7169989,函館市 北海道 040-0053 日本,5
函館七飯スノーパーク,41.986998,140.7469165,函館市日本、〒041-1351 北海道亀田郡七飯町東大沼６６６,7
ゴシケヴィッチ胸像,41.7637261,140.716927,函館市末広町４−１９,10
旧函館西警察署庁舎（函館市臨海研究所）,41.77079579999999,140.7100218,函館市大町１３−１,9
大圓寺,41.8143064,140.7650484,函館市神山３丁目４−１ 大円寺,8
夷王山,41.801277,140.096275,函館市日本、〒049-0601 北海道檜山郡上ノ国町勝山 夷王山,7
旧小林写真館,41.7682662,140.709954,函館市大町２−９,9
北海道第一歩の地碑,41.76737799999999,140.7133674,函館市末広町２４,10
石川啄木歌碑（青柳町）,41.7605096,140.7171189,函館市青柳町１４−１４,10
高田屋本店跡,41.76197459999999,140.7210251,函館市宝来町２４−２４,8
石川啄木居住地跡,41.7588644,140.7170219,函館市青柳町１５,10
榎本武揚之像,41.79287,140.7479762,函館市梁川町２５,10
函館市公民館,41.75979869999999,140.7156639,函館市青柳町１２−１７ 函館市公民館,9
【2024年10月31日閉館】石川啄木函館記念館（土方・啄木浪漫館）,41.7727835,140.7549114,函館市日乃出町２５−４,6
千畳敷,41.74688019999999,140.7078414,函館市函館山,7
木古内町郷土資料館（いかりん館）,41.671342,140.412842,函館市日本、〒049-0455 北海道上磯郡木古内町鶴岡７４−１,10
武田斐三郎先生顕彰碑,41.79649949999999,140.7559786,函館市五稜郭町４４,8
箱館戦争の大砲,41.7911785,140.7367516,函館市八幡町３−２,8
湯の川温泉発祥の地碑,41.78132,140.7913033,函館市湯川町２丁目２９−１,8
千代台公園陸上競技場,41.7863051,140.7451362,函館市千代台町２２−２４,5
大沼国際カントリークラブ,42.02745540000001,140.7548639,函館市日本、〒041-1405 北海道茅部郡鹿部町駒見４９−１０,5
大沼公園スノーシューツアー,41.98384729999999,140.6721442,函館市日本、〒041-1354 北海道亀田郡七飯町大沼町,5
【休業中】函館手造りいか工房いかベイ,41.7664314,140.7152261,函館市末広町２４−６,3
函館市民プール,41.786688,140.7467267,函館市千代台町２２−２５,5
函館フェリーターミナル,41.8075807,140.7105434,函館市港町３丁目１９−２,4
箱館奉行所,41.7969003,140.7566438,函館市五稜郭町４４−３,9
恵山つつじ公園,41.79248510000001,141.1541612,函館市柏野町,7
【2024年10月31日閉館】土方歳三凾館記念館（土方・啄木浪漫館）,41.7727835,140.7549114,函館市日乃出町２５−４,6
碧血碑,41.7518014,140.7085648,函館市谷地頭町１,10
ペリー提督来航記念碑,41.76617969999999,140.7098503,函館市弥生町２,10
函館山,41.75929410000001,140.703917,函館市 函館山,7
函館山の砲台跡（旧函館要塞）,41.756727,140.7015486,函館市函館山０４０ 0000,10
函館八幡宮,41.75386769999999,140.7098647,函館市谷地頭町２−５,10
函館市青函連絡船記念館摩周丸,41.77289080000001,140.7217883,函館市若松町１２−１２番地先,9
夷王山キャンプ場,41.79651519999999,140.096543,函館市日本、〒049-0601 北海道檜山郡上ノ国町勝山５２０,4
ニヤマ高原スキー場,41.986998,140.7469165,函館市日本、〒041-1351 北海道亀田郡七飯町東大沼６６６,4
鹿部カントリー倶楽部,42.073391,140.77104,函館市日本、〒041-1404 北海道茅部郡本別 鹿部町本別530-248,5
函館ベイコーストカントリークラブ,41.81036290000001,140.6061004,函館市日本、〒049-0133 北海道北斗市柳沢 柳沢３２３−１,5
根崎公園ラグビー場,41.7762164,140.7949906,函館市湯川町３丁目６,4
海峡横綱ビーチ,41.4822145,140.2617883,函館市日本、〒049-1321 北海道松前郡福島町月崎２０,5
函館フットボールパーク　テニスコート,41.8021512,140.7940437,函館市日吉町４丁目７−１,4
【閉鎖】函館シーサイドカントリークラブ,41.7868058,140.8672303,函館市豊原町２３７,5
恵山シーサイドパークゴルフ場,41.78617959999999,141.0955805,函館市高岱町６８−４,4
函館市国際水産・海洋総合研究センター,41.7819685,140.7032397,函館市弁天町２０−５,7
函館アリーナ展示スペース（GLAY関連など）,41.7819528,140.7835209,函館市湯川町１丁目３２−２,6
石川啄木歌碑,41.7572448,140.7161634,函館市青柳町１７,10
中島三郎助父子最後之地,41.7872278,140.7431644,函館市中島町３６,10
土方歳三ブロンズ像,41.7949434,140.7542515,函館市五稜郭町４３−９,10
旧桟橋（東浜桟橋）,41.772673,140.7214593,函館市若松町１２−１９,9
大三坂,41.7639808,140.7142833,函館市 大三坂,7
函館市電 駒場車庫,41.7822323,140.7790374,函館市駒場町１５−１ 市電駒場車庫,9
ふれあいイカ広場,41.7725567,140.7220195,函館市若松町１２−１９,9
Green Forest Cafe,41.7662229,140.7115619,函館市末広町２０−３,3
優鮨【2023年12月閉店】,41.917145,140.95848,函館市安浦町９０−１,1
季肴酒,41.7859623,140.7495262,函館市本町１−４７,1
【2024/10/15閉店】gram ベイエリア函館店,41.7651406,140.7178604,函館市末広町１２−３,1
和Dining 井井,41.7659878,140.7172474,函館市末広町１３−５,3
ヤマタ たちか屋,41.7878543,140.7514491,函館市本町３２−４,1
【2024/8/3閉店】カフェ＆レストランBUZZ（バズ）,41.7873998,140.7514523,函館市本町３２−３７ 清野ビル 1階,1
LAMB'S EAR,41.7880356,140.7433098,函館市中島町３８−１１,1
鮨処あうん亭 光,41.7867225,140.7428883,函館市中島町３６−１６,1
二代目 佐平次,41.7939266,140.7513984,函館市五稜郭町４−１３ 五洋ビル,1
丸善 瀧澤商店,41.7730696,140.7292573,函館市若松町１９−７,1
旬味 千,41.7922193,140.7506693,函館市梁川町２２−２２,1
懐石の里 煌,41.7477312,140.7163759,函館市住吉町１７−１ 割烹煌,1
ビアバー山下,41.7647135,140.7157927,函館市末広町１６−３,2
蔵や,41.7631604,140.7189197,函館市末広町７−７,1
鯉之助,41.788686,140.751703,函館市本町３２−１１,1
ル・モン・ガギュー（函館国際ホテル）,41.7698234,140.72162,函館市大手町５−１０ 函館国際ホテル 8階 西館,2
スープカリー喰堂 吉田商店,41.776143,140.7382233,函館市新川町２４−１,1
寿しレストラン ひでちゃん鮨,41.9067148,140.9719601,函館市川汲町１４２３−３,1
Cafe&Restaurant Bees.Bee,41.79040730000001,140.7711418,函館市柏木町３９−３,1
炭火焼肉・ジンギスカン 炭火亭,41.7898788,140.7529616,函館市本町２２−２８,1
ANTICA OSTERIA DELL'ALBA,41.791704,140.776248,函館市本通３丁目２−１２,1
サーフサイド,41.8448494,141.1420898,函館市銚子町１００−４,3
表・びんごや,41.7886641,140.7516967,函館市本町３２−１０,1
イタリアンゴーゴー,41.766093,140.717422,函館市末広町１３−２０,1
はこだてわいん葡萄館本店,41.9104525,140.6810515,函館市日本、〒041-1104 北海道亀田郡七飯町上藤城11番地,3
Pain屋,41.7623893,140.7200066,函館市宝来町２２−１２,1
プティ・メルヴィーユ赤レンガ倉庫BAYはこだて店,41.7666991,140.7174642,函館市豊川町１１−５,3
古きものなどなど ひし伊,41.7608606,140.7188587,函館市宝来町９−４,3
NORTH SAKE & WINE 酒舗 稲村屋,41.903902,140.648765,函館市日本、〒041-1242 北海道北斗市市渡１丁目１−７ 観光交流センター別館 内,3
こなひき小屋,41.8947058,140.6919945,函館市日本、〒041-1111 北海道亀田郡七飯町本町４丁目１−５５,3
山田農場,41.9590745,140.7066501,函館市日本、〒041-1353 北海道亀田郡七飯町上軍川９００−１,3
おおば製パン,42.0209423,140.6326564,函館市日本、〒049-2142 北海道茅部郡森町赤井川４１２−１３２,3
十字屋珈琲店,41.7724718,140.7256396,函館市若松町９−１９,3
BENTO CAFE 41°GARDEN,41.9043522,140.6486591,函館市日本、〒041-1242 北海道北斗市市渡１丁目１−１,3
ヒュッテ,41.92587559999999,140.6367863,函館市日本、〒041-1101 北海道亀田郡七飯町仁山461ｰ6,3
NANAIRO FACTORY,41.9259845,140.6571624,函館市日本、〒041-1102 北海道亀田郡七飯町峠下 道の駅なないろ・ななえ,3
レイモンハウス元町店（みやげ店）,41.7636486,140.7143058,函館市元町３０−３ 函館カールレイモン,3
函館洋菓子スナッフルス函館エキナカ店,41.77372140000001,140.7263446,函館市若松町１２−１３,3
手づくりパンの家 ムックル,41.78200189999999,140.7450631,函館市千代台町１２−２５,1
ギャラリー村岡,41.7624863,140.7133673,函館市元町２−７,2
市中屋,41.7528932,140.7159697,函館市谷地頭町２６−１１,3
シュークリームの専門店 ママデコレ,41.7654333,140.7155489,函館市末広町２３−２１,1
餅の北屋,41.78932289999999,140.7526493,函館市本町２５−１２,3
日和館,41.7642776,140.7104945,函館市元町１０−１３,3
いるか文庫ショップ,41.7738554,140.7264375,函館市若松町１２−１３,6
道の駅 しりうち,41.6012589,140.3358339,函館市日本、〒049-1221 北海道上磯郡知内町字湯の里４８−１３,3
八雲町情報交流物産館「丘の駅」,42.2268589,140.3143603,函館市日本、〒049-3124 北海道二海郡八雲町浜松３６８−８,3
道の駅 あっさぶ,41.916638,140.2163282,函館市日本、〒043-1112 北海道檜山郡厚沢部町緑町７２−１,3
Chouette Cacao,41.79437469999999,140.7486196,函館市梁川町２７−１６,3
パティスリー ラパン・ド・ネージュ,41.7691182,140.7267993,函館市大手町１６−１,3
パン工房　元町ぼん・ぱん,41.7645814,140.7160848,函館市末広町１６−１,3
モンモランシー（函館国際ホテル）,41.769564,140.722278,函館市大手町５−１０,3
天然酵母パン　tombolo,41.7637724,140.7141989,函館市元町３０−６,3
気ままなパン屋　窯蔵,41.75321839999999,140.7161631,函館市谷地頭町２５−１８,1
はこだて恋いちご洋菓子店,41.7651393,140.7165853,函館市末広町１５−１ ルネッサンス 末広 1階,3
プティ・メルヴィーユ函館駅前店,41.77408269999999,140.7274855,函館市若松町１２−８,3
ヤマチュウ食品 日乃出店,41.7720203,140.7494734,函館市日乃出町１−２,1
ブーランジェリー エプイ,41.98064290000001,140.6693416,函館市日本、〒041-1354 北海道亀田郡七飯町大沼町８５−９,3
三月の羊,41.99161269999999,140.6952875,函館市日本、〒041-1353 北海道亀田郡七飯町上軍川９−１１,3
旧函館区公会堂売店（函館みやげ はこぱこ）,41.7650219,140.7089348,函館市元町１１−１３ 旧函館区公会堂内,3
雑貨屋pente,41.8367482,140.7296486,函館市桔梗２丁目１２−５,3
にっぽんCHACHACHA 函館ストア,41.7663232,140.7172023,函館市末広町１３−９ 金森洋物館,3
イチマス,41.779827,140.785037,函館市湯川町１丁目２６−２９,3
六花亭 漁火通店,41.77467439999999,140.7653101,函館市金堀町９−9番18号,3
プティ・メルヴィーユ本通店,41.7958338,140.7748328,函館市本通３丁目２５−２５,3
ホタルぱん,41.7578317,140.7203602,函館市宝来町２−５,1
はこだて工芸舎,41.764021,140.7190035,函館市末広町８−８,3
Angélique Voyage,41.7679664,140.7091657,函館市弥生町３−１１,3
ロシア・東欧雑貨直輸入店 チャイカ,41.7641331,140.7106453,函館市元町７−７,3
道の駅 横綱の里ふくしま,41.4796138,140.255714,函館市日本、〒049-1312 北海道松前郡福島町福島１４３−１,3
中華料理 李太白,41.7894697,140.7413712,函館市宮前町３０−２,1
Jolly Jellyfish,41.8076976,140.7719624,函館市東山２丁目６−１,3
函館海鮮料理 海光房,41.7728989,140.7243368,函館市若松町１１−８,1
おひるごはんカフェ taom,41.7648892,140.718445,函館市末広町９−９ カルチャーセンター 臥牛館 1F,3
Hakodate Dining 備後屋,41.78952020000001,140.7550407,函館市本町２８−１５ 備後屋,3
四季海鮮 旬花,41.7947628,140.7538416,函館市五稜郭町４３−９ 五稜郭タワー２階,1
Flower Picnic Cafe,41.76404950000001,140.7108708,函館市元町７−９,3
茶蔵,41.7844734,140.7505076,函館市時任町５−４,1
麓 ROKU（Villa Concordia Resort&Spa）,41.763059,140.7171099,函館市末広町３−５,1
CAFE&BAR LYCORIS,41.7948434,140.733474,函館市亀田町１４−１１,1
Glacier ‘c’est chouette !,41.7944716,140.7490399,函館市五稜郭町７−８,3
COFFEEマルシェ,41.7733017,140.7344734,函館市新川町１−２,1
日本料理 うなぎ 松前（函館国際ホテル）,41.7696192,140.7222911,函館市大手町５−１０ 函館国際ホテル東館2階,3
そばと酒 柏木町三貞,41.78771049999999,140.7660488,函館市柏木町７−３２,1
洋風居酒屋 南部坂（2022年閉店）,41.7629257,140.7169967,函館市末広町３−４,3
炉ばた 炉辺人,41.791356,140.750574,函館市本町１０−１１,1
四季　粋花亭,41.7906064,140.7544758,函館市本町２０−６,1
地元家（JIMOTO-YA）,41.7888545,140.7512515,函館市本町５−１６,1
すきやき しゃぶしゃぶ 牛兵衛,41.7862718,140.7495466,函館市本町１−４４,1
居酒屋 庄平,41.7880852,140.7658513,函館市柏木町６−４３,3
炭火割烹 菊川,41.79212709999999,140.7522682,函館市五稜郭町３２−１９ 久米センタービル 1F,1
【休業中】レストラン バスク,41.7852122,140.7582858,函館市松陰町１−４,1
北前船 松前,41.42652569999999,140.1070574,函館市日本、〒049-1506 北海道松前郡松前町唐津３７９,3
SUQ+,41.75988529999999,140.7227776,函館市宝来町２７−１３,2
デイスパ プアマナ 大手町店,41.7697541,140.7237642,函館市大手町６−７ メゾンパティオ大手町,3
710candle,41.7531373,140.7161271,函館市谷地頭町２５−１６,2
南かやべ漁協 直販加工センター,41.90418859999999,140.9705788,函館市川汲町１５４６−１２,3
Endeavour To Go 二十間坂,41.7643024,140.7157968,函館市末広町１７−１５,3
はこだてわいん葡萄館西部店,41.7667251,140.7173408,函館市豊川町１１−５ BAYはこだて 内,3
OZIO,41.7632975,140.7157414,函館市元町２９−１４,3
丸井栄餅,41.7644101,140.7258013,函館市栄町５−１３,1
あぐりへい屋,41.85439169999999,140.6727644,函館市日本、〒041-1214 北海道北斗市東前６２,3
丸昌,41.7648857,140.7163666,函館市末広町１６−１４,3
地酒・ワイン屋 みのや,41.7997908,140.7344499,函館市亀田町２２−１０,1
道の駅　縄文ロマン 南かやべ,41.92763,140.945506,函館市臼尻町５５１−１,3
道の駅 なとわ・えさん,41.7794481,141.1016252,函館市日ノ浜町３１−２,7
五島軒十字街プロミエル・カモイ店,41.76321599999999,140.718395,函館市末広町５−２０,3
シエスタハコダテ,41.78961869999999,140.7519576,函館市本町２４−１,3
キラリス函館,41.7728862,140.7286019,函館市若松町２０−１,3
まるごと北海道ストア えぞりす,41.77293,140.7286344,函館市若松町２０−１号,1
丸井今井函館店,41.7888689,140.7521452,函館市本町３２−１５,3
HAKOVIVA,41.774427,140.727398,函館市若松町１２−８,3
パティスリージョリ・クレール,41.8218972,140.6523164,函館市日本、〒049-0162 北海道北斗市中央２丁目１−５,3
道の駅 しかべ間歇泉公園,42.0286722,140.8305105,函館市日本、〒041-1402 北海道茅部郡鹿部町鹿部１８−１,3
THE DANSHAKU LOUNGE,41.9256967,140.6579922,函館市日本、〒041-1102 北海道亀田郡七飯町峠下379番3,3
いろは,41.7654159,140.7166685,函館市末広町１４−２,3
ヴィクトリアンローズ　スーベニアショップ（函館市旧イギリス領事館）,41.76594980000001,140.7106585,函館市元町３３−１４ 函館市旧イギリス領事館,3
道の駅 みそぎの郷 きこない,41.67779089999999,140.4354526,函館市日本、〒049-0422 北海道上磯郡木古内町本町３３８−１４ 道の駅 みそぎの郷きこない,3
パン研究所 神戸こむぎ館,41.7860113,140.7631158,函館市松陰町２７−４１,3
THE HAKODATE DEPART,41.7758792,140.8155042,函館市高松町５１１,3
函館西波止場,41.7664254,140.7152089,函館市末広町２４−６,3
函館山ロープウェイ山頂ショップ,41.7594128,140.7045389,函館市函館山函館山（展望台） 内,3
スイーツ&デリカショップ Ashibino,41.7635171,140.7162546,函館市末広町４−５ 五島軒本店,3
